     2              N:  GPS NAV DATA                        RINEX VERSION / TYPE
JPS2RIN 1.03        TU DELFT            03-JAN-00 11:50     PGM / RUN BY / DATE
build September 3, 1999                                     COMMENT
     .1956D-07   .0000D+00  -.5960D-07   .1192D-06          ION ALPHA
     .1393D+06  -.1966D+06   .6554D+05   .1311D+06          ION BETA
     .651925802231D-08  .461852778244D-13   589824       18 DELTA-UTC: A0,A1,T,W
    13                                                      LEAP SECONDS
                                                            END OF HEADER       
16 99 12 30  6  0  0.0  .154238659889D-03  .204636307899D-11  .000000000000D+00
     .730000000000D+02  .125937500000D+02  .424874840600D-08  .265305070020D+01
     .599771738052D-06  .437910016626D-02  .771693885326D-05  .515369850540D+04
     .367200000000D+06 -.558793544769D-07 -.601214711577D+00 -.316649675369D-07
     .975576221946D+00  .237281250000D+03  .347953924078D+00 -.790675791963D-08
     .265368196508D-09  .000000000000D+00  .104200000000D+04  .000000000000D+00
     .320000000000D+02  .000000000000D+00 -.931322574615D-09  .730000000000D+02
     .367199000000D+06                                                          
16 99 12 30  8  0  0.0  .154253095388D-03  .204636307899D-11  .000000000000D+00
     .740000000000D+02  .968750000000D+01  .426303471536D-08 -.258000884921D+01
     .443309545517D-06  .437935232185D-02  .772438943386D-05  .515369801331D+04
     .374400000000D+06 -.465661287308D-07 -.601271769771D+00 -.707805156708D-07
     .975578087166D+00  .237656250000D+03  .347991981891D+00 -.792747306822D-08
     .278225874939D-09  .000000000000D+00  .104200000000D+04  .000000000000D+00
     .320000000000D+02  .000000000000D+00 -.931322574615D-09  .740000000000D+02
     .374399000000D+06                                                          
16 99 12 30 16  0  0.0  .154310837388D-03  .204636307899D-11  .000000000000D+00
     .720000000000D+02 -.565625000000D+01  .412338604129D-08  .162068021531D+01
    -.419095158577D-06  .438036210835D-02  .827945768833D-05  .515370142365D+04
     .403200000000D+06  .260770320892D-07 -.601501393782D+00  .894069671631D-07
     .975586759344D+00  .224625000000D+03  .347957053259D+00 -.796211736843D-08
     .339657005220D-09  .000000000000D+00  .104200000000D+04  .000000000000D+00
     .320000000000D+02  .000000000000D+00 -.931322574615D-09  .328000000000D+03
     .403199000000D+06                                                          
16 99 12 31  0  0  0.0  .154362060130D-03  .204636307899D-11  .000000000000D+00
     .102000000000D+03 -.157500000000D+02  .406766943476D-08 -.461324617073D+00
    -.938773155212D-06  .438223616220D-02  .836327672005D-05  .515370162201D+04
     .432000000000D+06  .633299350739D-07 -.601725983891D+00  .316649675369D-07
     .975595671441D+00  .226500000000D+03  .347421746665D+00 -.792925885689D-08
     .108218793461D-09  .000000000000D+00  .104200000000D+04  .000000000000D+00
     .320000000000D+02  .000000000000D+00 -.931322574615D-09  .102000000000D+03
     .431999000000D+06                                                          
17 99 12 30  7 59 44.0 -.236259307712D-03 -.170530256582D-11  .000000000000D+00
     .215000000000D+03 -.300312500000D+02  .398695178683D-08 -.116185449199D+01
    -.177137553692D-05  .112722730264D-01  .800006091595D-05  .515353905678D+04
     .374384000000D+06 -.316649675369D-07 -.159652778746D+01 -.162050127983D-06
     .984345002652D+00  .237500000000D+03  .292251061219D+01 -.789675750308D-08
     .696457581682D-10  .000000000000D+00  .104200000000D+04  .000000000000D+00
     .320000000000D+02  .000000000000D+00 -.186264514923D-08  .215000000000D+03
     .374399000000D+06                                                          
17 99 12 30 10  0  0.0 -.236271880567D-03 -.170530256582D-11  .000000000000D+00
     .216000000000D+03 -.308125000000D+02  .399302346831D-08 -.109231952921D+00
    -.159256160259D-05  .112722681370D-01  .814534723759D-05  .515353942490D+04
     .381600000000D+06  .147148966789D-06 -.159658444335D+01 -.651925802231D-07
     .984344633997D+00  .233312500000D+03  .292248047316D+01 -.802176271004D-08
    -.546451333320D-10  .000000000000D+00  .104200000000D+04  .000000000000D+00
     .320000000000D+02  .000000000000D+00 -.186264514923D-08  .216000000000D+03
     .381599000000D+06                                                          
17 99 12 30 12  0  0.0 -.236284453422D-03 -.170530256582D-11  .000000000000D+00
     .217000000000D+03 -.268125000000D+02  .389016204086D-08  .941003198937D+00
    -.136904418468D-05  .112721553305D-01  .827200710773D-05  .515353944588D+04
     .388800000000D+06  .217929482460D-06 -.159664132307D+01  .154599547386D-06
     .984344818324D+00  .231531250000D+03  .292250436553D+01 -.784568394709D-08
    -.117504894551D-09  .000000000000D+00  .104200000000D+04  .000000000000D+00
     .320000000000D+02  .000000000000D+00 -.186264514923D-08  .217000000000D+03
     .388799000000D+06                                                          
17 99 12 30 15 59 28.0 -.236325897276D-03 -.181898940355D-11  .000000000000D+00
     .000000000000D+00 -.280937500000D+02  .378087177420D-08  .303688422623D+01
    -.138394534588D-05  .112718818709D-01  .783056020737D-05  .515353966522D+04
     .403168000000D+06 -.134110450745D-06 -.159675288081D+01  .726431608200D-07
     .984342941400D+00  .240593750000D+03  .292247230422D+01 -.765496171702D-08
    -.104290058385D-09  .000000000000D+00  .104200000000D+04  .000000000000D+00
     .320000000000D+02  .000000000000D+00 -.186264514923D-08  .000000000000D+00
     .403199000000D+06                                                          
17 99 12 30 17 59 28.0 -.236338935792D-03 -.181898940355D-11  .000000000000D+00
     .100000000000D+01 -.322187500000D+02  .378480050928D-08 -.219606126384D+01
    -.169314444065D-05  .112714110874D-01  .777840614319D-05  .515354031372D+04
     .410368000000D+06 -.203028321266D-06 -.159680856679D+01 -.651925802231D-07
     .984341782769D+00  .245093750000D+03  .292248947010D+01 -.777032366517D-08
    -.667884962947D-10  .000000000000D+00  .104200000000D+04  .000000000000D+00
     .320000000000D+02  .000000000000D+00 -.186264514923D-08  .100000000000D+01
     .410399000000D+06                                                          
17 99 12 30 20  0  0.0 -.236351508647D-03 -.181898940355D-11  .000000000000D+00
     .200000000000D+01 -.410312500000D+02  .381123018161D-08 -.114124479384D+01
    -.224821269512D-05  .112718197051D-01  .746361911297D-05  .515353792000D+04
     .417600000000D+06 -.139698386192D-06 -.159686485695D+01 -.238418579102D-06
     .984341308784D+00  .249718750000D+03  .292259910411D+01 -.780603943859D-08
    -.109647424398D-09  .000000000000D+00  .104200000000D+04  .000000000000D+00
     .320000000000D+02  .000000000000D+00 -.186264514923D-08  .200000000000D+01
     .417599000000D+06                                                          
17 99 12 30 22  0  0.0 -.236364547163D-03 -.181898940355D-11  .000000000000D+00
     .300000000000D+01 -.454375000000D+02  .394266422779D-08 -.909385719565D-01
    -.258535146713D-05  .112722401973D-01  .760331749916D-05  .515353915405D+04
     .424800000000D+06  .188127160072D-06 -.159692048002D+01 -.782310962677D-07
     .984338859859D+00  .246468750000D+03  .292255073711D+01 -.803354891527D-08
    -.340728478423D-09  .000000000000D+00  .104200000000D+04  .000000000000D+00
     .320000000000D+02  .000000000000D+00 -.186264514923D-08  .300000000000D+01
     .424799000000D+06                                                          
18 99 12 30  2  0  0.0  .304407440126D-04  .341060513165D-12  .000000000000D+00
     .119000000000D+03 -.287500000000D+02  .494484882994D-08 -.196886014414D+01
    -.143237411976D-05  .760445301421D-02  .574812293053D-05  .515364271736D+04
     .352800000000D+06  .353902578354D-07  .350712310244D+00  .208616256714D-06
     .949322992530D+00  .262468750000D+03  .186341000269D+01 -.831248910568D-08
     .167864135072D-10  .000000000000D+00  .104200000000D+04  .000000000000D+00
     .320000000000D+02  .000000000000D+00 -.512227416039D-08  .631000000000D+03
     .352799000000D+06                                                          
18 99 12 30  4  0  0.0  .304435379803D-04  .341060513165D-12  .000000000000D+00
     .120000000000D+03 -.321250000000D+02  .503199531709D-08 -.918742340255D+00
    -.171735882759D-05  .760436872952D-02  .599585473537D-05  .515364146805D+04
     .360000000000D+06 -.100582838058D-06  .350651335818D+00  .689178705215D-07
     .949322530248D+00  .259343750000D+03  .186349609103D+01 -.848892502637D-08
     .596453416107D-10  .000000000000D+00  .104200000000D+04  .000000000000D+00
     .320000000000D+02  .000000000000D+00 -.512227416039D-08  .376000000000D+03
     .359999000000D+06                                                          
18 99 12 30  6  0  0.0  .304458662868D-04  .341060513165D-12  .000000000000D+00
     .115000000000D+03 -.335312500000D+02  .502413784694D-08  .131438272554D+00
    -.183843076229D-05  .760410563089D-02  .584870576859D-05  .515364086914D+04
     .367200000000D+06 -.117346644402D-06  .350590838304D+00 -.819563865662D-07
     .949322606320D+00  .261281250000D+03  .186351964108D+01 -.848321050263D-08
    -.571452374714D-10  .000000000000D+00  .104200000000D+04  .000000000000D+00
     .320000000000D+02  .000000000000D+00 -.512227416039D-08  .371000000000D+03
     .367199000000D+06                                                          
